$$SOE
2460714.500000000, A.D. 2025-Feb-08 00:00:00.0000, 4.618250273952491E+08, -3.985465020627549E+07, -8.941275113239810E+05,
2460721.500000000, A.D. 2025-Feb-15 00:00:00.0000, 4.628704415853001E+08, -2.970412675856896E+07, 1.228031808322681E+06,
2460728.500000000, A.D. 2025-Feb-22 00:00:00.0000, 4.636906623603358E+08, -1.953918706288196E+07, 3.349593401440887E+06,
2460735.500000000, A.D. 2025-Mar-01 00:00:00.0000, 4.642857145106514E+08, -9.364793318517987E+06, 5.469527898917943E+06,
2460742.500000000, A.D. 2025-Mar-08 00:00:00.0000, 4.646557451900652E+08, 8.141058854488467E+05, 7.586810558432274E+06,
2460749.500000000, A.D. 2025-Mar-15 00:00:00.0000, 4.648010229111122E+08, 1.099258052620702E+07, 9.700422051818240E+06,
2460756.500000000, A.D. 2025-Mar-22 00:00:00.0000, 4.647219342396928E+08, 2.116572263660713E+07, 1.180934932820208E+07,
2460763.500000000, A.D. 2025-Mar-29 00:00:00.0000, 4.644189817697598E+08, 3.132864748166707E+07, 1.391258615505810E+07,
2460770.500000000, A.D. 2025-Apr-05 00:00:00.0000, 4.638927837048296E+08, 4.147649555786008E+07, 1.600913356284541E+07,
2460777.500000000, A.D. 2025-Apr-12 00:00:00.0000, 4.631440731234323E+08, 5.160443551735830E+07, 1.809800037758688E+07,
2460784.500000000, A.D. 2025-Apr-19 00:00:00.0000, 4.621736967450892E+08, 6.170766713390712E+07, 2.017820378582918E+07,
2460791.500000000, A.D. 2025-Apr-26 00:00:00.0000, 4.609826134721788E+08, 7.178142410538214E+07, 2.224876988980950E+07,
2460798.500000000, A.D. 2025-May-03 00:00:00.0000, 4.595718928249960E+08, 8.182097671052694E+07, 2.430873424337604E+07,
2460805.500000000, A.D. 2025-May-10 00:00:00.0000, 4.579427133022826E+08, 9.182163432709202E+07, 2.635714236625091E+07,
2460812.500000000, A.D. 2025-May-17 00:00:00.0000, 4.560963607078390E+08, 1.017787477690697E+08, 2.839305022952712E+07,
2460819.500000000, A.D. 2025-May-24 00:00:00.0000, 4.540342266211910E+08, 1.116877113872089E+08, 3.041552469169262E+07,
2460826.500000000, A.D. 2025-May-31 00:00:00.0000, 4.517578074335580E+08, 1.215439652420600E+08, 3.242364387189181E+07,
2460833.500000000, A.D. 2025-Jun-07 00:00:00.0000, 4.492687035502325E+08, 1.313429985532823E+08, 3.441649759520017E+07,
2460840.500000000, A.D. 2025-Jun-14 00:00:00.0000, 4.465686163983096E+08, 1.410803537593314E+08, 3.639318807236633E+07,
2460847.500000000, A.D. 2025-Jun-21 00:00:00.0000, 4.436593444629344E+08, 1.507516279161970E+08, 3.835283043549051E+07,
2460854.500000000, A.D. 2025-Jun-28 00:00:00.0000, 4.405427814843975E+08, 1.603524731981211E+08, 4.029455298681520E+07,
2460861.500000000, A.D. 2025-Jul-05 00:00:00.0000, 4.372209153018717E+08, 1.698785986562006E+08, 4.221749747585043E+07,
2460868.500000000, A.D. 2025-Jul-12 00:00:00.0000, 4.336958261564248E+08, 1.793257724296257E+08, 4.412081944843951E+07,
2460875.500000000, A.D. 2025-Jul-19 00:00:00.0000, 4.299696846468212E+08, 1.886898238341256E+08, 4.600368860357096E+07,
2460882.500000000, A.D. 2025-Jul-26 00:00:00.0000, 4.260447495513484E+08, 1.979666452703238E+08, 4.786528913409019E+07,
2460889.500000000, A.D. 2025-Aug-02 00:00:00.0000, 4.219233655834636E+08, 2.071521939730448E+08, 4.970482004693764E+07,
2460896.500000000, A.D. 2025-Aug-09 00:00:00.0000, 4.176079611064715E+08, 2.162424935871618E+08, 5.152149545939161E+07,
2460903.500000000, A.D. 2025-Aug-16 00:00:00.0000, 4.131010458862396E+08, 2.252336355082307E+08, 5.331454485915300E+07,
2460910.500000000, A.D. 2025-Aug-23 00:00:00.0000, 4.084052091778641E+08, 2.341217800066416E+08, 5.508321330327374E+07,
2460917.500000000, A.D. 2025-Aug-30 00:00:00.0000, 4.035231184792839E+08, 2.429031578508717E+08, 5.682676158475563E+07,
2460924.500000000, A.D. 2025-Sep-06 00:00:00.0000, 3.984575175365222E+08, 2.515740734310324E+08, 5.854446657914561E+07,
2460931.500000000, A.D. 2025-Sep-13 00:00:00.0000, 3.932112219332980E+08, 2.601309069024573E+08, 6.023562172254792E+07,
2460938.500000000, A.D. 2025-Sep-20 00:00:00.0000, 3.877871155441695E+08, 2.685701137066700E+08, 6.189953718769938E+07,
2460945.500000000, A.D. 2025-Sep-27 00:00:00.0000, 3.821881489131488E+08, 2.768882245807479E+08, 6.353553991557464E+07,
2460952.500000000, A.D. 2025-Oct-04 00:00:00.0000, 3.764173375425011E+08, 2.850818465946804E+08, 6.514297373168074E+07,
2460959.500000000, A.D. 2025-Oct-11 00:00:00.0000, 3.704777597200741E+08, 2.931476642750698E+08, 6.672119950459591E+07,
2460966.500000000, A.D. 2025-Oct-18 00:00:00.0000, 3.643725541711242E+08, 3.010824405421849E+08, 6.826959529862507E+07,
2460973.500000000, A.D. 2025-Oct-25 00:00:00.0000, 3.581049176762954E+08, 3.088830174727703E+08, 6.978755650886290E+07,
2460980.500000000, A.D. 2025-Nov-01 00:00:00.0000, 3.516781026970195E+08, 3.165463169055674E+08, 7.127449597636916E+07,
2460987.500000000, A.D. 2025-Nov-08 00:00:00.0000, 3.450954150444275E+08, 3.240693408598481E+08, 7.272984407770021E+07,
2460994.500000000, A.D. 2025-Nov-15 00:00:00.0000, 3.383602117410948E+08, 3.314491717105426E+08, 7.415304877045676E+07,
2461001.500000000, A.D. 2025-Nov-22 00:00:00.0000, 3.314758994801186E+08, 3.386829723425471E+08, 7.554357557602060E+07,
2461008.500000000, A.D. 2025-Nov-29 00:00:00.0000, 3.244459335301896E+08, 3.457679874209912E+08, 7.690090760624550E+07,
2461015.500000000, A.D. 2025-Dec-06 00:00:00.0000, 3.172738148093604E+08, 3.527015456427788E+08, 7.822454583158503E+07,
2461022.500000000, A.D. 2025-Dec-13 00:00:00.0000, 3.099630855618708E+08, 3.594810596030687E+08, 7.951400927615312E+07,
2461029.500000000, A.D. 2025-Dec-20 00:00:00.0000, 3.025173271350218E+08, 3.661040243037525E+08, 8.076883490405892E+07,
2461036.500000000, A.D. 2025-Dec-27 00:00:00.0000, 2.949401587846775E+08, 3.725680168965002E+08, 8.198857750750229E+07,
2461043.500000000, A.D. 2026-Jan-03 00:00:00.0000, 2.872352360510101E+08, 3.788706970464692E+08, 8.317280968036748E+07,
2461050.500000000, A.D. 2026-Jan-10 00:00:00.0000, 2.794062488153223E+08, 3.850098072402194E+08, 8.432112181223379E+07,
2461057.500000000, A.D. 2026-Jan-17 00:00:00.0000, 2.714569192716755E+08, 3.909831729488531E+08, 8.543312207448159E+07,
2461064.500000000, A.D. 2026-Jan-24 00:00:00.0000, 2.633909998922702E+08, 3.967887026716446E+08, 8.650843639366855E+07,
2461071.500000000, A.D. 2026-Jan-31 00:00:00.0000, 2.552122714108354E+08, 4.024243878553966E+08, 8.754670840987773E+07,
2461078.500000000, A.D. 2026-Feb-07 00:00:00.0000, 2.469245408861930E+08, 4.078883026349346E+08, 8.854759941020161E+07,
2461085.500000000, A.D. 2026-Feb-14 00:00:00.0000, 2.385316400996705E+08, 4.131786033824388E+08, 8.951078821348259E+07,
2461092.500000000, A.D. 2026-Feb-21 00:00:00.0000, 2.300374246749493E+08, 4.182935286458017E+08, 9.043597101862305E+07,
2461099.500000000, A.D. 2026-Feb-28 00:00:00.0000, 2.214457728367681E+08, 4.232314006314354E+08, 9.132286141059080E+07,
2461106.500000000, A.D. 2026-Mar-07 00:00:00.0000, 2.127605817492888E+08, 4.279906262821552E+08, 9.217119055349278E+07,
2461113.500000000, A.D. 2026-Mar-14 00:00:00.0000, 2.039857642091345E+08, 4.325696956207196E+08, 9.298070712643084E+07,
2461120.500000000, A.D. 2026-Mar-21 00:00:00.0000, 1.951252474781297E+08, 4.369671802604955E+08, 9.375117707661363E+07,
2461127.500000000, A.D. 2026-Mar-28 00:00:00.0000, 1.861829722477217E+08, 4.411817331125563E+08, 9.448238345826718E+07,
2461134.500000000, A.D. 2026-Apr-04 00:00:00.0000, 1.771628911314259E+08, 4.452120883238517E+08, 9.517412633380035E+07,
2461141.500000000, A.D. 2026-Apr-11 00:00:00.0000, 1.680689669590175E+08, 4.490570610869812E+08, 9.582622268270993E+07,
2461148.500000000, A.D. 2026-Apr-18 00:00:00.0000, 1.589051710311736E+08, 4.527155473154610E+08, 9.643850630306694E+07,
2461155.500000000, A.D. 2026-Apr-25 00:00:00.0000, 1.496754813794776E+08, 4.561865232003210E+08, 9.701082770280445E+07,
2461162.500000000, A.D. 2026-May-02 00:00:00.0000, 1.403838810617099E+08, 4.594690446204299E+08, 9.754305397620586E+07,
2461169.500000000, A.D. 2026-May-09 00:00:00.0000, 1.310343566168673E+08, 4.625622463430078E+08, 9.803506864974099E+07,
2461176.500000000, A.D. 2026-May-16 00:00:00.0000, 1.216308970583862E+08, 4.654653411555939E+08, 9.848677147499642E+07,
2461183.500000000, A.D. 2026-May-23 00:00:00.0000, 1.121774934586394E+08, 4.681776199546559E+08, 9.889807824845743E+07,
2461190.500000000, A.D. 2026-May-30 00:00:00.0000, 1.026781370478623E+08, 4.706984531114022E+08, 9.926892087507612E+07,
2461197.500000000, A.D. 2026-Jun-06 00:00:00.0000, 9.313681550960839E+07, 4.730272898403338E+08, 9.959924743666112E+07,
2461204.500000000, A.D. 2026-Jun-13 00:00:00.0000, 8.355751113713399E+07, 4.751636557714269E+08, 9.988902194548446E+07,
2461211.500000000, A.D. 2026-Jun-20 00:00:00.0000, 7.394420035026376E+07, 4.771071516546496E+08, 1.001382240686003E+08,
2461218.500000000, A.D. 2026-Jun-27 00:00:00.0000, 6.430085287452636E+07, 4.788574528573284E+08, 1.003468489505093E+08,
2461225.500000000, A.D. 2026-Jul-04 00:00:00.0000, 5.463143058164638E+07, 4.804143088798895E+08, 1.005149070705340E+08,
2461232.500000000, A.D. 2026-Jul-11 00:00:00.0000, 4.493988624452929E+07, 4.817775427590277E+08, 1.006424241007172E+08,
2461239.500000000, A.D. 2026-Jul-18 00:00:00.0000, 3.523016229880322E+07, 4.829470503851299E+08, 1.007294407577845E+08,
2461246.500000000, A.D. 2026-Jul-25 00:00:00.0000, 2.550618963475225E+07, 4.839227997377248E+08, 1.007760126471148E+08,
2461253.500000000, A.D. 2026-Aug-01 00:00:00.0000, 1.577188646709975E+07, 4.847048299918177E+08, 1.007822100903665E+08,
2461260.500000000, A.D. 2026-Aug-08 00:00:00.0000, 6.031157496769727E+06, 4.852932504602085E+08, 1.007481179141596E+08,
2461267.500000000, A.D. 2026-Aug-15 00:00:00.0000, -3.712106221239994E+06, 4.856882398234780E+08, 1.006738351987534E+08,
2461274.500000000, A.D. 2026-Aug-22 00:00:00.0000, -1.345402746542509E+07, 4.858900468708178E+08, 1.005594751566936E+08,
2461281.500000000, A.D. 2026-Aug-29 00:00:00.0000, -2.319074537951237E+07, 4.858989913795285E+08, 1.004051652390940E+08,
2461288.500000000, A.D. 2026-Sep-05 00:00:00.0000, -3.291841821596072E+07, 4.857154622638598E+08, 1.002110470390322E+08,
$$EOE